{
    "links": {
        "self": "http://www.neowsapp.com/rest/v1/neo/3989254?api_key=iIulBulltgU6a56xZRHN4H3l9WmuAYTsLGpBGhQ2"
    },
    "id": "3989254",
    "neo_reference_id": "3989254",
    "name": "(2020 BE11)",
    "designation": "2020 BE11",
    "nasa_jpl_url": "http://ssd.jpl.nasa.gov/sbdb.cgi?sstr=3989254",
    "absolute_magnitude_h": 22.43,
    "estimated_diameter": {
        "kilometers": {
            "estimated_diameter_min": 0.0868070458,
            "estimated_diameter_max": 0.1941064553
        },
        "meters": {
            "estimated_diameter_min": 86.8070457914,
            "estimated_diameter_max": 194.1064553155
        },
        "miles": {
            "estimated_diameter_min": 0.0539393809,
            "estimated_diameter_max": 0.1206121222
        },
        "feet": {
            "estimated_diameter_min": 284.8000281143,
            "estimated_diameter_max": 636.8322228574
        }
    },
    "is_potentially_hazardous_asteroid": false,
    "close_approach_data": [
        {
            "close_approach_date": "2020-01-05",
            "close_approach_date_full": "2020-Jan-05 09:20",
            "epoch_date_close_approach": 1578216000000,
            "relative_velocity": {
                "kilometers_per_second": "13.9543160928",
                "kilometers_per_hour": "50235.537933986",
                "miles_per_hour": "31214.4096679259"
            },
            "miss_distance": {
                "astronomical": "0.0767190287",
                "lunar": "29.8437021643",
                "kilometers": "11477003.281988869",
                "miles": "7131479.1483456322"
            },
            "orbiting_body": "Earth"
        }
    ],
    "orbital_data": {
        "orbit_id": "5",
        "orbit_determination_date": "2020-02-26 07:28:41",
        "first_observation_date": "2020-01-26",
        "last_observation_date": "2020-02-21",
        "data_arc_in_days": 26,
        "observations_used": 35,
        "orbit_uncertainty": "7",
        "minimum_orbit_intersection": ".0026122",
        "jupiter_tisserand_invariant": "3.890",
        "epoch_osculation": "2459000.5",
        "eccentricity": ".484867563672234",
        "semi_major_axis": "1.795073189446938",
        "inclination": "15.2128814356987",
        "ascending_node_longitude": "96.35862539510254",
        "orbital_period": "878.4593458711727",
        "perihelion_distance": ".9247004254664548",
        "perihelion_argument": "325.8282467115266",
        "aphelion_distance": "2.665445953427422",
        "perihelion_time": "2458824.477062446950",
        "mean_anomaly": "72.13567459545385",
        "mean_motion": ".4098083783751952",
        "equinox": "J2000",
        "orbit_class": {
            "orbit_class_type": "APO",
            "orbit_class_description": "Near-Earth asteroid orbits which cross the Earth’s orbit similar to that of 1862 Apollo",
            "orbit_class_range": "a (semi-major axis) > 1.0 AU; q (perihelion) < 1.017 AU"
        }
    },
    "is_sentry_object": false
}